{"type": "FeatureCollection", "features": [ {"type": "Feature", "properties": {"norad_id": 66890, "name": "STARLINK-35885", "group": "last-30-days", "lat": 43.574170612008714, "lon": 68.22439736745369, "alt_km": 347.7837940884483, "timestamp": "2025-12-22T22:44:19.652148+00:00", "meta": {"OBJECT_NAME": "STARLINK-35885", "OBJECT_ID": "2025-283N", "EPOCH": "2025-12-22T20:00:01.999008", "MEAN_MOTION": 15.7215278, "ECCENTRICITY": 0.000122, "INCLINATION": 53.1586, "RA_OF_ASC_NODE": 23.2806, "ARG_OF_PERICENTER": 89.3564, "MEAN_ANOMALY": 44.1745, "EPHEMERIS_TYPE": 0, "CLASSIFICATION_TYPE": "U", "NORAD_CAT_ID": 66890, "ELEMENT_SET_NO": 999, "REV_AT_EPOCH": 405, "BSTAR": -0.016501, "MEAN_MOTION_DOT": -0.01960652, "MEAN_MOTION_DDOT": 0}, "tle": {"line1": "1 66890U 25283N   25356.83335647 -.01960652  00000+0 -16501-1 0  9993", "line2": "2 66890  53.1586  23.2806 0001220  89.3564  44.1745 15.72152780  4052"}}, "geometry": {"type": "Point", "coordinates": [68.22439736745369, 43.574170612008714]}}, {"type": "Feature", "properties": {"norad_id": 66891, "name": "STARLINK-35855", "group": "last-30-days", "lat": 44.63149553336538, "lon": 70.4587868410531, "alt_km": 347.58922422667547, "timestamp": "2025-12-22T22:44:19.652160+00:00", "meta": {"OBJECT_NAME": "STARLINK-35855", "OBJECT_ID": "2025-283P", "EPOCH": "2025-12-22T20:00:01.999008", "MEAN_MOTION": 15.72140814, "ECCENTRICITY": 0.0001277, "INCLINATION": 53.1588, "RA_OF_ASC_NODE": 23.2764, "ARG_OF_PERICENTER": 87.8751, "MEAN_ANOMALY": 47.5807, "EPHEMERIS_TYPE": 0, "CLASSIFICATION_TYPE": "U", "NORAD_CAT_ID": 66891, "ELEMENT_SET_NO": 999, "REV_AT_EPOCH": 405, "BSTAR": -0.016386, "MEAN_MOTION_DOT": -0.01947757, "MEAN_MOTION_DDOT": 0}, "tle": {"line1": "1 66891U 25283P   25356.83335647 -.01947757  00000+0 -16386-1 0  9996", "line2": "2 66891  53.1588  23.2764 0001277  87.8751  47.5807 15.72140814  4052"}}, "geometry": {"type": "Point", "coordinates": [70.4587868410531, 44.63149553336538]}}, {"type": "Feature", "properties": {"norad_id": 66892, "name": "STARLINK-35883", "group": "last-30-days", "lat": 45.640709822500256, "lon": 72.76769257703018, "alt_km": 347.3737111246937, "timestamp": "2025-12-22T22:44:19.652174+00:00", "meta": {"OBJECT_NAME": "STARLINK-35883", "OBJECT_ID": "2025-283Q", "EPOCH": "2025-12-22T20:00:01.999008", "MEAN_MOTION": 15.72147988, "ECCENTRICITY": 0.0001273, "INCLINATION": 53.1589, "RA_OF_ASC_NODE": 23.2719, "ARG_OF_PERICENTER": 80.632, "MEAN_ANOMALY": 56.735, "EPHEMERIS_TYPE": 0, "CLASSIFICATION_TYPE": "U", "NORAD_CAT_ID": 66892, "ELEMENT_SET_NO": 999, "REV_AT_EPOCH": 399, "BSTAR": -0.016442, "MEAN_MOTION_DOT": -0.01954201, "MEAN_MOTION_DDOT": 0}, "tle": {"line1": "1 66892U 25283Q   25356.83335647 -.01954201  00000+0 -16442-1 0  9992", "line2": "2 66892  53.1589  23.2719 0001273  80.6320  56.7350 15.72147988  3999"}}, "geometry": {"type": "Point", "coordinates": [72.76769257703018, 45.640709822500256]}}, {"type": "Feature", "properties": {"norad_id": 66893, "name": "STARLINK-36033", "group": "last-30-days", "lat": 46.60461269668379, "lon": 75.16878553798584, "alt_km": 347.2232627385383, "timestamp": "2025-12-22T22:44:19.652185+00:00", "meta": {"OBJECT_NAME": "STARLINK-36033", "OBJECT_ID": "2025-283R", "EPOCH": "2025-12-22T20:00:01.999008", "MEAN_MOTION": 15.72138739, "ECCENTRICITY": 0.0001261, "INCLINATION": 53.1587, "RA_OF_ASC_NODE": 23.268, "ARG_OF_PERICENTER": 73.1015, "MEAN_ANOMALY": 66.1891, "EPHEMERIS_TYPE": 0, "CLASSIFICATION_TYPE": "U", "NORAD_CAT_ID": 66893, "ELEMENT_SET_NO": 999, "REV_AT_EPOCH": 405, "BSTAR": -0.016368, "MEAN_MOTION_DOT": -0.01945671, "MEAN_MOTION_DDOT": 0}, "tle": {"line1": "1 66893U 25283R   25356.83335647 -.01945671  00000+0 -16368-1 0  9991", "line2": "2 66893  53.1587  23.2680 0001261  73.1015  66.1891 15.72138739  4057"}}, "geometry": {"type": "Point", "coordinates": [75.16878553798584, 46.60461269668379]}}, {"type": "Feature", "properties": {"norad_id": 66894, "name": "STARLINK-35718", "group": "last-30-days", "lat": 47.51137803175945, "lon": 77.64064303920654, "alt_km": 346.98394970663776, "timestamp": "2025-12-22T22:44:19.652195+00:00", "meta": {"OBJECT_NAME": "STARLINK-35718", "OBJECT_ID": "2025-283S", "EPOCH": "2025-12-22T20:00:01.999008", "MEAN_MOTION": 15.72148228, "ECCENTRICITY": 0.000139, "INCLINATION": 53.1587, "RA_OF_ASC_NODE": 23.2649, "ARG_OF_PERICENTER": 74.6655, "MEAN_ANOMALY": 66.5332, "EPHEMERIS_TYPE": 0, "CLASSIFICATION_TYPE": "U", "NORAD_CAT_ID": 66894, "ELEMENT_SET_NO": 999, "REV_AT_EPOCH": 405, "BSTAR": -0.016445, "MEAN_MOTION_DOT": -0.01954562, "MEAN_MOTION_DDOT": 0}, "tle": {"line1": "1 66894U 25283S   25356.83335647 -.01954562  00000+0 -16445-1 0  9997", "line2": "2 66894  53.1587  23.2649 0001390  74.6655  66.5332 15.72148228  4050"}}, "geometry": {"type": "Point", "coordinates": [77.64064303920654, 47.51137803175945]}}, {"type": "Feature", "properties": {"norad_id": 66895, "name": "STARLINK-35971", "group": "last-30-days", "lat": 49.16406891461639, "lon": 82.86093091849318, "alt_km": 346.9168941984026, "timestamp": "2025-12-22T22:44:19.652205+00:00", "meta": {"OBJECT_NAME": "STARLINK-35971", "OBJECT_ID": "2025-283T", "EPOCH": "2025-12-22T20:00:01.999008", "MEAN_MOTION": 15.72148891, "ECCENTRICITY": 0.0001124, "INCLINATION": 53.1588, "RA_OF_ASC_NODE": 23.2549, "ARG_OF_PERICENTER": 63.6708, "MEAN_ANOMALY": 81.3669, "EPHEMERIS_TYPE": 0, "CLASSIFICATION_TYPE": "U", "NORAD_CAT_ID": 66895, "ELEMENT_SET_NO": 999, "REV_AT_EPOCH": 405, "BSTAR": -0.016504, "MEAN_MOTION_DOT": -0.01960652, "MEAN_MOTION_DDOT": 0}, "tle": {"line1": "1 66895U 25283T   25356.83335647 -.01960652  00000+0 -16504-1 0  9991", "line2": "2 66895  53.1588  23.2549 0001124  63.6708  81.3669 15.72148891  4057"}}, "geometry": {"type": "Point", "coordinates": [82.86093091849318, 49.16406891461639]}}, {"type": "Feature", "properties": {"norad_id": 66896, "name": "STARLINK-35791", "group": "last-30-days", "lat": 48.36587272381364, "lon": 80.20299460885894, "alt_km": 347.2156274762283, "timestamp": "2025-12-22T22:44:19.652218+00:00", "meta": {"OBJECT_NAME": "STARLINK-35791", "OBJECT_ID": "2025-283U", "EPOCH": "2025-12-22T20:00:01.999008", "MEAN_MOTION": 15.72146718, "ECCENTRICITY": 9.34e-05, "INCLINATION": 53.1588, "RA_OF_ASC_NODE": 23.2594, "ARG_OF_PERICENTER": 87.2797, "MEAN_ANOMALY": 55.8388, "EPHEMERIS_TYPE": 0, "CLASSIFICATION_TYPE": "U", "NORAD_CAT_ID": 66896, "ELEMENT_SET_NO": 999, "REV_AT_EPOCH": 405, "BSTAR": -0.016422, "MEAN_MOTION_DOT": -0.01951672, "MEAN_MOTION_DDOT": 0}, "tle": {"line1": "1 66896U 25283U   25356.83335647 -.01951672  00000+0 -16422-1 0  9993", "line2": "2 66896  53.1588  23.2594 0000934  87.2797  55.8388 15.72146718  4056"}}, "geometry": {"type": "Point", "coordinates": [80.20299460885894, 48.36587272381364]}}, {"type": "Feature", "properties": {"norad_id": 66897, "name": "STARLINK-36079", "group": "last-30-days", "lat": 49.89438685582456, "lon": 85.58545731214711, "alt_km": 346.6459561707634, "timestamp": "2025-12-22T22:44:19.652228+00:00", "meta": {"OBJECT_NAME": "STARLINK-36079", "OBJECT_ID": "2025-283V", "EPOCH": "2025-12-22T20:00:01.999008", "MEAN_MOTION": 15.72143208, "ECCENTRICITY": 0.0001383, "INCLINATION": 53.1588, "RA_OF_ASC_NODE": 23.252, "ARG_OF_PERICENTER": 74.302, "MEAN_ANOMALY": 72.6511, "EPHEMERIS_TYPE": 0, "CLASSIFICATION_TYPE": "U", "NORAD_CAT_ID": 66897, "ELEMENT_SET_NO": 999, "REV_AT_EPOCH": 405, "BSTAR": -0.016395, "MEAN_MOTION_DOT": -0.01948976, "MEAN_MOTION_DDOT": 0}, "tle": {"line1": "1 66897U 25283V   25356.83335647 -.01948976  00000+0 -16395-1 0  9996", "line2": "2 66897  53.1588  23.2520 0001383  74.3020  72.6511 15.72143208  4057"}}, "geometry": {"type": "Point", "coordinates": [85.58545731214711, 49.89438685582456]}}, {"type": "Feature", "properties": {"norad_id": 66898, "name": "STARLINK-36065", "group": "last-30-days", "lat": 50.56040320472835, "lon": 88.39499581784351, "alt_km": 346.547326339406, "timestamp": "2025-12-22T22:44:19.652242+00:00", "meta": {"OBJECT_NAME": "STARLINK-36065", "OBJECT_ID": "2025-283W", "EPOCH": "2025-12-22T20:00:01.999008", "MEAN_MOTION": 15.7214972, "ECCENTRICITY": 0.0001388, "INCLINATION": 53.1589, "RA_OF_ASC_NODE": 23.2475, "ARG_OF_PERICENTER": 81.0847, "MEAN_ANOMALY": 67.7839, "EPHEMERIS_TYPE": 0, "CLASSIFICATION_TYPE": "U", "NORAD_CAT_ID": 66898, "ELEMENT_SET_NO": 999, "REV_AT_EPOCH": 405, "BSTAR": -0.016485, "MEAN_MOTION_DOT": -0.01958931, "MEAN_MOTION_DDOT": 0}, "tle": {"line1": "1 66898U 25283W   25356.83335647 -.01958931  00000+0 -16485-1 0  9999", "line2": "2 66898  53.1589  23.2475 0001388  81.0847  67.7839 15.72149720  4058"}}, "geometry": {"type": "Point", "coordinates": [88.39499581784351, 50.56040320472835]}}, {"type": "Feature", "properties": {"norad_id": 66899, "name": "STARLINK-36064", "group": "last-30-days", "lat": 51.162470002093166, "lon": 91.31171087667519, "alt_km": 346.5226182962715, "timestamp": "2025-12-22T22:44:19.652252+00:00", "meta": {"OBJECT_NAME": "STARLINK-36064", "OBJECT_ID": "2025-283X", "EPOCH": "2025-12-22T20:00:01.999008", "MEAN_MOTION": 15.72153559, "ECCENTRICITY": 0.000131, "INCLINATION": 53.1589, "RA_OF_ASC_NODE": 23.2433, "ARG_OF_PERICENTER": 80.4235, "MEAN_ANOMALY": 70.3805, "EPHEMERIS_TYPE": 0, "CLASSIFICATION_TYPE": "U", "NORAD_CAT_ID": 66899, "ELEMENT_SET_NO": 999, "REV_AT_EPOCH": 399, "BSTAR": -0.016725, "MEAN_MOTION_DOT": -0.01984351, "MEAN_MOTION_DDOT": 0}, "tle": {"line1": "1 66899U 25283X   25356.83335647 -.01984351  00000+0 -16725-1 0  9992", "line2": "2 66899  53.1589  23.2433 0001310  80.4235  70.3805 15.72153559  3992"}}, "geometry": {"type": "Point", "coordinates": [91.31171087667519, 51.162470002093166]}}]}